- id: gps-40730
  name: NAVSTAR 74 (USA 262)
  allegiance: friendly
  components:
    - kind: space_orbit
      data:
        line1: "1 40730U 15033A   26086.95074998  .00000004  00000+0  00000+0 0  9991"
        line2: "2 40730  54.0472 270.4335 0114860  29.4650 331.1739  2.00560324 78361"
        fov_half_angle_deg: 5.0
    - kind: symbol
      data:
        sidc_template:
          version: "10"
          context: reality
          standard_identity: friend
          symbol_set: space
          status: present
          hqtfd: not_applicable
          amplifier: unspecified
          entity: code_110700
          modifier_one: code_02
          modifier_two: code_00
